start=new Date('2022-03-12T00:00:00.000Z').valueOf();
sats=[{"RCS_SIZE":"LARGE","MEAN_ELEMENT_THEORY":"SGP4","REV_AT_EPOCH":"8935","MEAN_MOTION_DDOT":"0.0000000000000","CLASSIFICATION_TYPE":"U","ELEMENT_SET_NO":"999","OBJECT_TYPE":"PAYLOAD","ECCENTRICITY":"0.00015810","NORAD_CAT_ID":"46078","TIME_SYSTEM":"UTC","ARG_OF_PERICENTER":"62.4771","COUNTRY_CODE":"US","DECAY_DATE":null,"EPHEMERIS_TYPE":"0","EPOCH":"2022-03-11T13:42:57.861792","PERIAPSIS":"546.066","SEMIMAJOR_AXIS":"6925.296","MEAN_MOTION_DOT":"0.00005475","LAUNCH_DATE":"2020-08-07","MEAN_MOTION":"15.06417098","TLE_LINE1":"1 46078U 20055BD  22070.57150303  .00005475  00000-0  38599-3 0  9990","OBJECT_NAME":"STARLINK-1563","FILE":"3355378","MEAN_ANOMALY":"297.6379","OBJECT_ID":"2020-055BD","APOAPSIS":"548.256","CENTER_NAME":"EARTH","GP_ID":"198516762","TLE_LINE2":"2 46078  53.0541 166.8651 0001581  62.4771 297.6379 15.06417098 89359","BSTAR":"0.00038599000000","PERIOD":"95.591","SITE":"AFETR","INCLINATION":"53.0541","REF_FRAME":"TEME","RA_OF_ASC_NODE":"166.8651"},{"APOAPSIS":"548.196","TLE_LINE2":"2 46079  53.0542 166.8860 0001432  77.5501 282.5648 15.06402894 89389","BSTAR":"0.00017225000000","PERIOD":"95.592","CENTER_NAME":"EARTH","GP_ID":"198517012","MEAN_ANOMALY":"282.5648","OBJECT_NAME":"STARLINK-1566","FILE":"3355378","OBJECT_ID":"2020-055BE","RA_OF_ASC_NODE":"166.8860","REF_FRAME":"TEME","INCLINATION":"53.0542","SITE":"AFETR","LAUNCH_DATE":"2020-08-07","MEAN_MOTION_DOT":"0.00002285","PERIAPSIS":"546.213","SEMIMAJOR_AXIS":"6925.340","MEAN_MOTION":"15.06402894","TLE_LINE1":"1 46079U 20055BE  22070.56413515  .00002285  00000-0  17225-3 0  9996","NORAD_CAT_ID":"46079","COUNTRY_CODE":"US","TIME_SYSTEM":"UTC","ARG_OF_PERICENTER":"77.5501","EPHEMERIS_TYPE":"0","EPOCH":"2022-03-11T13:32:21.276960","DECAY_DATE":null,"REV_AT_EPOCH":"8938","MEAN_MOTION_DDOT":"0.0000000000000","RCS_SIZE":"LARGE","MEAN_ELEMENT_THEORY":"SGP4","OBJECT_TYPE":"PAYLOAD","ECCENTRICITY":"0.00014320","CLASSIFICATION_TYPE":"U","ELEMENT_SET_NO":"999"},{"OBJECT_ID":"2020-055BF","OBJECT_NAME":"STARLINK-1568","FILE":"3354959","MEAN_ANOMALY":"292.5554","CENTER_NAME":"EARTH","GP_ID":"198482188","TLE_LINE2":"2 46080  53.0533 167.0625 0001547  67.5598 292.5554 15.06410226 89357","BSTAR":"0.00023003000000","PERIOD":"95.591","APOAPSIS":"548.254","SITE":"AFETR","INCLINATION":"53.0533","RA_OF_ASC_NODE":"167.0625","REF_FRAME":"TEME","PERIAPSIS":"546.111","SEMIMAJOR_AXIS":"6925.317","MEAN_MOTION_DOT":"0.00003147","LAUNCH_DATE":"2020-08-07","MEAN_MOTION":"15.06410226","TLE_LINE1":"1 46080U 20055BF  22070.52357045  .00003147  00000-0  23003-3 0  9998","TIME_SYSTEM":"UTC","ARG_OF_PERICENTER":"67.5598","COUNTRY_CODE":"US","NORAD_CAT_ID":"46080","DECAY_DATE":null,"EPOCH":"2022-03-11T12:33:56.486880","EPHEMERIS_TYPE":"0","MEAN_ELEMENT_THEORY":"SGP4","RCS_SIZE":"LARGE","MEAN_MOTION_DDOT":"0.0000000000000","REV_AT_EPOCH":"8935","ELEMENT_SET_NO":"999","CLASSIFICATION_TYPE":"U","ECCENTRICITY":"0.00015470","OBJECT_TYPE":"PAYLOAD"},{"MEAN_MOTION":"15.06422997","TLE_LINE1":"1 46081U 20055BG  22070.55676171  .00023692  00000-0  16031-2 0  9995","PERIAPSIS":"546.234","SEMIMAJOR_AXIS":"6925.278","LAUNCH_DATE":"2020-08-07","MEAN_MOTION_DOT":"0.00023692","SITE":"AFETR","RA_OF_ASC_NODE":"166.9164","REF_FRAME":"TEME","INCLINATION":"53.0527","MEAN_ANOMALY":"297.5692","FILE":"3355378","OBJECT_NAME":"STARLINK-1571","OBJECT_ID":"2020-055BG","APOAPSIS":"548.052","TLE_LINE2":"2 46081  53.0527 166.9164 0001313  62.5430 297.5692 15.06422997 89376","BSTAR":"0.00160310000000","PERIOD":"95.591","CENTER_NAME":"EARTH","GP_ID":"198518014","CLASSIFICATION_TYPE":"U","ELEMENT_SET_NO":"999","OBJECT_TYPE":"PAYLOAD","ECCENTRICITY":"0.00013130","RCS_SIZE":"LARGE","MEAN_ELEMENT_THEORY":"SGP4","REV_AT_EPOCH":"8937","MEAN_MOTION_DDOT":"0.0000000000000","DECAY_DATE":null,"EPHEMERIS_TYPE":"0","EPOCH":"2022-03-11T13:21:44.211744","NORAD_CAT_ID":"46081","COUNTRY_CODE":"US","TIME_SYSTEM":"UTC","ARG_OF_PERICENTER":"62.5430"},{"INCLINATION":"53.0538","REF_FRAME":"TEME","RA_OF_ASC_NODE":"165.9189","SITE":"AFETR","APOAPSIS":"548.194","CENTER_NAME":"EARTH","GP_ID":"198516263","TLE_LINE2":"2 46082  53.0538 165.9189 0001577  65.9820 294.1334 15.06436311 89413","PERIOD":"95.590","BSTAR":"0.00122950000000","FILE":"3355378","OBJECT_NAME":"STARLINK-1578","MEAN_ANOMALY":"294.1334","OBJECT_ID":"2020-055BH","MEAN_MOTION":"15.06436311","TLE_LINE1":"1 46082U 20055BH  22070.77791235  .00018097  00000-0  12295-2 0  9990","MEAN_MOTION_DOT":"0.00018097","LAUNCH_DATE":"2020-08-07","SEMIMAJOR_AXIS":"6925.237","PERIAPSIS":"546.010","EPHEMERIS_TYPE":"0","EPOCH":"2022-03-11T18:40:11.627040","DECAY_DATE":null,"NORAD_CAT_ID":"46082","TIME_SYSTEM":"UTC","ARG_OF_PERICENTER":"65.9820","COUNTRY_CODE":"US","OBJECT_TYPE":"PAYLOAD","ECCENTRICITY":"0.00015770","CLASSIFICATION_TYPE":"U","ELEMENT_SET_NO":"999","REV_AT_EPOCH":"8941","MEAN_MOTION_DDOT":"0.0000000000000","RCS_SIZE":"LARGE","MEAN_ELEMENT_THEORY":"SGP4"},{"MEAN_ELEMENT_THEORY":"SGP4","RCS_SIZE":"LARGE","REV_AT_EPOCH":"8937","MEAN_MOTION_DDOT":"0.0000000000000","CLASSIFICATION_TYPE":"U","ELEMENT_SET_NO":"999","OBJECT_TYPE":"PAYLOAD","ECCENTRICITY":"0.00013630","NORAD_CAT_ID":"46083","COUNTRY_CODE":"US","TIME_SYSTEM":"UTC","ARG_OF_PERICENTER":"64.4398","DECAY_DATE":null,"EPHEMERIS_TYPE":"0","EPOCH":"2022-03-11T13:11:07.119744","PERIAPSIS":"546.229","SEMIMAJOR_AXIS":"6925.308","LAUNCH_DATE":"2020-08-07","MEAN_MOTION_DOT":"0.00004626","MEAN_MOTION":"15.06413309","TLE_LINE1":"1 46083U 20055BJ  22070.54938796  .00004626  00000-0  32914-3 0  9995","MEAN_ANOMALY":"295.6732","FILE":"3355378","OBJECT_NAME":"STARLINK-1579","OBJECT_ID":"2020-055BJ","APOAPSIS":"548.117","TLE_LINE2":"2 46083  53.0526 166.9443 0001363  64.4398 295.6732 15.06413309 89377","BSTAR":"0.00032914000000","PERIOD":"95.591","CENTER_NAME":"EARTH","GP_ID":"198516513","SITE":"AFETR","RA_OF_ASC_NODE":"166.9443","REF_FRAME":"TEME","INCLINATION":"53.0526"},{"ECCENTRICITY":"0.00017930","OBJECT_TYPE":"PAYLOAD","ELEMENT_SET_NO":"999","CLASSIFICATION_TYPE":"U","MEAN_MOTION_DDOT":"0.0000000000000","REV_AT_EPOCH":"8641","MEAN_ELEMENT_THEORY":"SGP4","RCS_SIZE":"LARGE","EPOCH":"2022-03-11T12:23:21.100416","EPHEMERIS_TYPE":"0","DECAY_DATE":null,"COUNTRY_CODE":"US","ARG_OF_PERICENTER":"58.4744","TIME_SYSTEM":"UTC","NORAD_CAT_ID":"46117","MEAN_MOTION":"15.06401600","TLE_LINE1":"1 46117U 20057A   22070.51621644  .00000847  00000-0  75761-4 0  9992","LAUNCH_DATE":"2020-08-18","MEAN_MOTION_DOT":"0.00000847","PERIAPSIS":"545.967","SEMIMAJOR_AXIS":"6925.344","REF_FRAME":"TEME","RA_OF_ASC_NODE":"7.1035","INCLINATION":"53.0545","SITE":"AFETR","PERIOD":"95.592","TLE_LINE2":"2 46117  53.0545   7.1035 0001793  58.4744 301.6420 15.06401600 86419","BSTAR":"0.00007576100000","GP_ID":"198517768","CENTER_NAME":"EARTH","APOAPSIS":"548.450","OBJECT_ID":"2020-057A","MEAN_ANOMALY":"301.6420","FILE":"3355378","OBJECT_NAME":"STARLINK-1585"},{"DECAY_DATE":null,"EPHEMERIS_TYPE":"0","EPOCH":"2022-03-11T14:12:09.880128","NORAD_CAT_ID":"46118","TIME_SYSTEM":"UTC","ARG_OF_PERICENTER":"57.9480","COUNTRY_CODE":"US","CLASSIFICATION_TYPE":"U","ELEMENT_SET_NO":"999","OBJECT_TYPE":"PAYLOAD","ECCENTRICITY":"0.00016830","MEAN_ELEMENT_THEORY":"SGP4","RCS_SIZE":"LARGE","REV_AT_EPOCH":"8742","MEAN_MOTION_DDOT":"0.0000000000000","SITE":"AFETR","INCLINATION":"53.0544","REF_FRAME":"TEME","RA_OF_ASC_NODE":"26.7593","OBJECT_NAME":"STARLINK-1588","FILE":"3355378","MEAN_ANOMALY":"302.1672","OBJECT_ID":"2020-057B","APOAPSIS":"548.365","CENTER_NAME":"EARTH","GP_ID":"198517519","BSTAR":"0.00018585000000","TLE_LINE2":"2 46118  53.0544  26.7593 0001683  57.9480 302.1672 15.06404666 87426","PERIOD":"95.592","TLE_LINE1":"1 46118U 20057B   22070.59178102  .00002488  00000-0  18585-3 0  9990","MEAN_MOTION":"15.06404666","SEMIMAJOR_AXIS":"6925.334","PERIAPSIS":"546.034","MEAN_MOTION_DOT":"0.00002488","LAUNCH_DATE":"2020-08-18"},{"OBJECT_ID":"2020-057C","FILE":"3355378","OBJECT_NAME":"STARLINK-1593","MEAN_ANOMALY":"300.6507","GP_ID":"198516767","CENTER_NAME":"EARTH","PERIOD":"95.591","TLE_LINE2":"2 46119  53.0549  25.6342 0001731  59.4653 300.6507 15.06425465 87447","BSTAR":"0.00044869000000","APOAPSIS":"548.334","SITE":"AFETR","INCLINATION":"53.0549","RA_OF_ASC_NODE":"25.6342","REF_FRAME":"TEME","PERIAPSIS":"545.937","SEMIMAJOR_AXIS":"6925.271","MEAN_MOTION_DOT":"0.00006412","LAUNCH_DATE":"2020-08-18","TLE_LINE1":"1 46119U 20057C   22070.84609454  .00006412  00000-0  44869-3 0  9993","MEAN_MOTION":"15.06425465","TIME_SYSTEM":"UTC","ARG_OF_PERICENTER":"59.4653","COUNTRY_CODE":"US","NORAD_CAT_ID":"46119","DECAY_DATE":null,"EPOCH":"2022-03-11T20:18:22.568256","EPHEMERIS_TYPE":"0","MEAN_ELEMENT_THEORY":"SGP4","RCS_SIZE":"LARGE","MEAN_MOTION_DDOT":"0.0000000000000","REV_AT_EPOCH":"8744","ELEMENT_SET_NO":"999","CLASSIFICATION_TYPE":"U","ECCENTRICITY":"0.00017310","OBJECT_TYPE":"PAYLOAD"},{"TLE_LINE1":"1 46120U 20057D   22070.56596720  .00008551  00000-0  59194-3 0  9998","MEAN_MOTION":"15.06419507","MEAN_MOTION_DOT":"0.00008551","LAUNCH_DATE":"2020-08-18","SEMIMAJOR_AXIS":"6925.289","PERIAPSIS":"546.038","INCLINATION":"53.0553","REF_FRAME":"TEME","RA_OF_ASC_NODE":"26.8813","SITE":"AFETR","APOAPSIS":"548.269","CENTER_NAME":"EARTH","GP_ID":"198517017","PERIOD":"95.591","TLE_LINE2":"2 46120  53.0553  26.8813 0001611  55.3473 304.7667 15.06419507 87422","BSTAR":"0.00059194000000","FILE":"3355378","OBJECT_NAME":"STARLINK-1601","MEAN_ANOMALY":"304.7667","OBJECT_ID":"2020-057D","OBJECT_TYPE":"PAYLOAD","ECCENTRICITY":"0.00016110","CLASSIFICATION_TYPE":"U","ELEMENT_SET_NO":"999","REV_AT_EPOCH":"8742","MEAN_MOTION_DDOT":"0.0000000000000","RCS_SIZE":"LARGE","MEAN_ELEMENT_THEORY":"SGP4","EPHEMERIS_TYPE":"0","EPOCH":"2022-03-11T13:34:59.566080","DECAY_DATE":null,"NORAD_CAT_ID":"46120","ARG_OF_PERICENTER":"55.3473","TIME_SYSTEM":"UTC","COUNTRY_CODE":"US"}];
